APRIZESAT 2             
1 28366U 04025A   26181.99203382  .00000244  00000+0  88963-4 0  9997
2 28366  98.1026 347.1917 0104965 207.7813 151.7746 14.38041920153628
SAUDICOMSAT 1           
1 28369U 04025D   26181.97165387  .00000394  00000+0  10143-3 0  9990
2 28369  98.5770 192.4750 0031746 343.5531  16.4632 14.55484547166135
SAUDICOMSAT 2           
1 28370U 04025E   26181.99542047  .00000233  00000+0  71764-4 0  9995
2 28370  98.6639 194.6322 0054692 216.9414 142.8007 14.49988364162101
APRIZESAT 1             
1 28372U 04025G   26181.87219279  .00000295  00000+0  84498-4 0  9998
2 28372  98.6303 192.9702 0045674 113.0630 247.5389 14.51784843163893
NANOSAT-1               
1 28493U 04049B   26181.95960264  .00001103  00000+0  15246-3 0  9997
2 28493  98.2293 318.9586 0002859 238.3206 121.7727 14.80186717157484
SAUDICOMSAT 7           
1 31119U 07012C   26181.48945677  .00000534  00000+0  10455-3 0  9992
2 31119  98.3785 155.8938 0056225 153.5740 206.8350 14.66122826 24380
SAUDICOMSAT 6           
1 31121U 07012E   26182.18338262  .00000550  00000+0  11495-3 0  9992
2 31121  98.4106 149.9609 0070424 283.5548  75.7814 14.62573759 22238
SAUDICOMSAT 5           
1 31124U 07012H   26182.19397566  .00000785  00000+0  14321-3 0  9999
2 31124  98.3497 157.3568 0048733  81.8011 278.8716 14.68175630 25650
SAUDICOMSAT 3           
1 31125U 07012J   26182.19823182  .00001015  00000+0  17333-3 0  9991
2 31125  98.3151 157.9084 0039335   9.7846 350.4116 14.70730478 26887
SAUDICOMSAT 4           
1 31127U 07012L   26182.16078076  .00000478  00000+0  97632-4 0  9997
2 31127  98.3991 155.0168 0062595 213.8011 145.9194 14.64525002 23337
APRIZESAT 4             
1 35684U 09041D   26182.14789818  .00000751  00000+0  96134-4 0  9994
2 35684  98.1410 257.7465 0041888 276.5074  83.1371 14.83897710913438
APRIZESAT 3             
1 35686U 09041F   26182.14247964  .00001011  00000+0  91993-4 0  9995
2 35686  98.2078 336.0363 0062086  22.0128 338.3737 14.96279358918461
S-NET D                 
1 43186U 18014G   26181.98634441  .00005375  00000+0  27685-3 0  9993
2 43186  97.5354  86.6912 0007401 343.7768  16.3227 15.16801058460858
S-NET B                 
1 43187U 18014H   26182.19598170  .00006042  00000+0  31096-3 0  9999
2 43187  97.5358  86.8865 0007818 337.0756  23.0127 15.16774620460888
S-NET A                 
1 43188U 18014J   26181.98514610  .00005322  00000+0  27405-3 0  9992
2 43188  97.5370  86.8886 0007770 338.8318  21.2592 15.16809248460854
S-NET C                 
1 43189U 18014K   26182.00201451  .00005696  00000+0  29337-3 0  9993
2 43189  97.5387  86.9820 0008907 328.8023  31.2680 15.16763133459407
SALSAT                  
1 46495U 20068K   26182.01155141  .00009542  00000+0  33118-3 0  9999
2 46495  97.8843 185.9193 0007968 248.9011 111.1377 15.29994176317476
OOV-CUBE (TUBSAT-30)    
1 60240U 24128F   26182.09498632  .00002054  00000+0  16541-3 0  9999
2 60240  61.9925 177.0745 0042922 136.8688 223.5779 15.02824797108207
LPNTSAT-001 (IOD-1)     
1 68408U 26065A   26181.91437338  .00002730  00000+0  13488-3 0  9999
2 68408  97.4002  62.1332 0015273 321.4968  38.5176 15.18606584 14344
